start=new Date('2022-10-02T00:00:00.000Z').valueOf();
sats=[{"MEAN_MOTION_DDOT":"0.0000000000000","COUNTRY_CODE":"US","MEAN_MOTION":"15.06397028","GP_ID":"213974262","RA_OF_ASC_NODE":"149.6465","APOAPSIS":"547.943","SEMIMAJOR_AXIS":"6925.358","OBJECT_ID":"2020-057H","BSTAR":"0.00013923000000","TLE_LINE2":"2 46124  53.0543 149.6465 0001040  82.6488 277.4619 15.06397028117506","CENTER_NAME":"EARTH","OBJECT_NAME":"STARLINK-1614","EPOCH":"2022-10-01T21:14:21.280992","PERIAPSIS":"546.502","FILE":"3588844","MEAN_ANOMALY":"277.4619","NORAD_CAT_ID":"46124","ECCENTRICITY":"0.00010400","EPHEMERIS_TYPE":"0","SITE":"AFETR","RCS_SIZE":"LARGE","INCLINATION":"53.0543","MEAN_MOTION_DOT":"0.00001793","TIME_SYSTEM":"UTC","TLE_LINE1":"1 46124U 20057H   22274.88496853  .00001793  00000-0  13923-3 0  9990","REF_FRAME":"TEME","REV_AT_EPOCH":"11750","ELEMENT_SET_NO":"999","DECAY_DATE":null,"ARG_OF_PERICENTER":"82.6488","PERIOD":"95.592","OBJECT_TYPE":"PAYLOAD","MEAN_ELEMENT_THEORY":"SGP4","CLASSIFICATION_TYPE":"U","LAUNCH_DATE":"2020-08-18"},{"TIME_SYSTEM":"UTC","TLE_LINE1":"1 46125U 20057J   22274.80018613 -.00000678  00000-0 -26605-4 0  9992","INCLINATION":"53.0538","MEAN_MOTION_DOT":"-0.00000678","RCS_SIZE":"LARGE","ECCENTRICITY":"0.00018530","EPHEMERIS_TYPE":"0","SITE":"AFETR","CLASSIFICATION_TYPE":"U","LAUNCH_DATE":"2020-08-18","OBJECT_TYPE":"PAYLOAD","MEAN_ELEMENT_THEORY":"SGP4","REV_AT_EPOCH":"11818","ELEMENT_SET_NO":"999","DECAY_DATE":null,"ARG_OF_PERICENTER":"99.6201","PERIOD":"95.591","REF_FRAME":"TEME","GP_ID":"213975512","MEAN_MOTION":"15.06423266","COUNTRY_CODE":"US","MEAN_MOTION_DDOT":"0.0000000000000","NORAD_CAT_ID":"46125","MEAN_ANOMALY":"260.4997","CENTER_NAME":"EARTH","OBJECT_NAME":"STARLINK-1618","EPOCH":"2022-10-01T19:12:16.081632","PERIAPSIS":"545.859","FILE":"3588844","OBJECT_ID":"2020-057J","SEMIMAJOR_AXIS":"6925.277","TLE_LINE2":"2 46125  53.0538 190.0490 0001853  99.6201 260.4997 15.06423266118182","BSTAR":"-0.00002660500000","RA_OF_ASC_NODE":"190.0490","APOAPSIS":"548.426"},{"NORAD_CAT_ID":"46126","MEAN_ANOMALY":"273.9573","PERIAPSIS":"546.242","FILE":"3588593","CENTER_NAME":"EARTH","OBJECT_NAME":"STARLINK-1619","EPOCH":"2022-10-01T12:12:57.536064","BSTAR":"0.00039626000000","TLE_LINE2":"2 46126  53.0558 191.3562 0001346  86.1569 273.9573 15.06412816116887","SEMIMAJOR_AXIS":"6925.309","OBJECT_ID":"2020-057K","RA_OF_ASC_NODE":"191.3562","APOAPSIS":"548.106","GP_ID":"213943085","MEAN_MOTION":"15.06412816","COUNTRY_CODE":"US","MEAN_MOTION_DDOT":"0.0000000000000","LAUNCH_DATE":"2020-08-18","CLASSIFICATION_TYPE":"U","MEAN_ELEMENT_THEORY":"SGP4","OBJECT_TYPE":"PAYLOAD","DECAY_DATE":null,"ARG_OF_PERICENTER":"86.1569","PERIOD":"95.591","REV_AT_EPOCH":"11688","ELEMENT_SET_NO":"999","REF_FRAME":"TEME","TLE_LINE1":"1 46126U 20057K   22274.50899926  .00005628  00000-0  39626-3 0  9998","TIME_SYSTEM":"UTC","MEAN_MOTION_DOT":"0.00005628","INCLINATION":"53.0558","RCS_SIZE":"LARGE","EPHEMERIS_TYPE":"0","SITE":"AFETR","ECCENTRICITY":"0.00013460"},{"REF_FRAME":"TEME","DECAY_DATE":null,"PERIOD":"95.590","ARG_OF_PERICENTER":"77.9181","REV_AT_EPOCH":"11714","ELEMENT_SET_NO":"999","MEAN_ELEMENT_THEORY":"SGP4","OBJECT_TYPE":"PAYLOAD","LAUNCH_DATE":"2020-08-18","CLASSIFICATION_TYPE":"U","SITE":"AFETR","EPHEMERIS_TYPE":"0","ECCENTRICITY":"0.00012620","RCS_SIZE":"LARGE","INCLINATION":"53.0529","MEAN_MOTION_DOT":"0.00013870","TLE_LINE1":"1 46127U 20057L   22274.43344676  .00013870  00000-0  94753-3 0  9998","TIME_SYSTEM":"UTC","RA_OF_ASC_NODE":"171.6790","APOAPSIS":"548.007","BSTAR":"0.00094753000000","TLE_LINE2":"2 46127  53.0529 171.6790 0001262  77.9181 282.1949 15.06426163117144","OBJECT_ID":"2020-057L","SEMIMAJOR_AXIS":"6925.268","PERIAPSIS":"546.259","FILE":"3588593","OBJECT_NAME":"STARLINK-1621","CENTER_NAME":"EARTH","EPOCH":"2022-10-01T10:24:09.800064","MEAN_ANOMALY":"282.1949","NORAD_CAT_ID":"46127","MEAN_MOTION_DDOT":"0.0000000000000","COUNTRY_CODE":"US","MEAN_MOTION":"15.06426163","GP_ID":"213943833"},{"ELEMENT_SET_NO":"999","REV_AT_EPOCH":"11749","ARG_OF_PERICENTER":"116.7746","PERIOD":"95.591","DECAY_DATE":null,"REF_FRAME":"TEME","CLASSIFICATION_TYPE":"U","LAUNCH_DATE":"2020-08-18","OBJECT_TYPE":"PAYLOAD","MEAN_ELEMENT_THEORY":"SGP4","RCS_SIZE":"LARGE","ECCENTRICITY":"0.00015280","SITE":"AFETR","EPHEMERIS_TYPE":"0","TIME_SYSTEM":"UTC","TLE_LINE1":"1 46128U 20057M   22274.85915793  .00004624  00000-0  32900-3 0  9992","INCLINATION":"53.0530","MEAN_MOTION_DOT":"0.00004624","OBJECT_ID":"2020-057M","SEMIMAJOR_AXIS":"6925.311","BSTAR":"0.00032900000000","TLE_LINE2":"2 46128  53.0530 149.7603 0001528 116.7746 243.3399 15.06412377117498","APOAPSIS":"548.234","RA_OF_ASC_NODE":"149.7603","NORAD_CAT_ID":"46128","MEAN_ANOMALY":"243.3399","EPOCH":"2022-10-01T20:37:11.245152","OBJECT_NAME":"STARLINK-1622","CENTER_NAME":"EARTH","FILE":"3588844","PERIAPSIS":"546.117","COUNTRY_CODE":"US","MEAN_MOTION_DDOT":"0.0000000000000","GP_ID":"213974761","MEAN_MOTION":"15.06412377"},{"REF_FRAME":"TEME","DECAY_DATE":null,"ARG_OF_PERICENTER":"102.5266","PERIOD":"95.592","REV_AT_EPOCH":"11749","ELEMENT_SET_NO":"999","MEAN_ELEMENT_THEORY":"SGP4","OBJECT_TYPE":"PAYLOAD","LAUNCH_DATE":"2020-08-18","CLASSIFICATION_TYPE":"U","SITE":"AFETR","EPHEMERIS_TYPE":"0","ECCENTRICITY":"0.00013780","RCS_SIZE":"LARGE","INCLINATION":"53.0528","MEAN_MOTION_DOT":"0.00005690","TLE_LINE1":"1 46129U 20057N   22274.83337044  .00005690  00000-0  40048-3 0  9994","TIME_SYSTEM":"UTC","RA_OF_ASC_NODE":"149.8918","APOAPSIS":"548.150","BSTAR":"0.00040048000000","TLE_LINE2":"2 46129  53.0528 149.8918 0001378 102.5266 257.5877 15.06405837117490","OBJECT_ID":"2020-057N","SEMIMAJOR_AXIS":"6925.331","PERIAPSIS":"546.241","FILE":"3588844","OBJECT_NAME":"STARLINK-1623","CENTER_NAME":"EARTH","EPOCH":"2022-10-01T20:00:03.206016","NORAD_CAT_ID":"46129","MEAN_ANOMALY":"257.5877","MEAN_MOTION_DDOT":"0.0000000000000","COUNTRY_CODE":"US","MEAN_MOTION":"15.06405837","GP_ID":"213975013"},{"APOAPSIS":"548.080","RA_OF_ASC_NODE":"149.7328","OBJECT_ID":"2020-057P","SEMIMAJOR_AXIS":"6925.341","TLE_LINE2":"2 46130  53.0543 149.7328 0001262  79.4115 280.7016 15.06402400118745","BSTAR":"0.00014517000000","EPOCH":"2022-10-01T20:47:47.946624","CENTER_NAME":"EARTH","OBJECT_NAME":"STARLINK-1624","FILE":"3588844","PERIAPSIS":"546.332","NORAD_CAT_ID":"46130","MEAN_ANOMALY":"280.7016","MEAN_MOTION_DDOT":"0.0000000000000","COUNTRY_CODE":"US","MEAN_MOTION":"15.06402400","GP_ID":"213975763","REF_FRAME":"TEME","ELEMENT_SET_NO":"999","REV_AT_EPOCH":"11874","ARG_OF_PERICENTER":"79.4115","PERIOD":"95.592","DECAY_DATE":null,"OBJECT_TYPE":"PAYLOAD","MEAN_ELEMENT_THEORY":"SGP4","CLASSIFICATION_TYPE":"U","LAUNCH_DATE":"2020-08-18","ECCENTRICITY":"0.00012620","EPHEMERIS_TYPE":"0","SITE":"AFETR","RCS_SIZE":"LARGE","MEAN_MOTION_DOT":"0.00001882","INCLINATION":"53.0543","TIME_SYSTEM":"UTC","TLE_LINE1":"1 46130U 20057P   22274.86652716  .00001882  00000-0  14517-3 0  9996"},{"GP_ID":"213974511","MEAN_MOTION":"15.06411083","COUNTRY_CODE":"US","MEAN_MOTION_DDOT":"0.0000000000000","NORAD_CAT_ID":"46131","MEAN_ANOMALY":"275.5822","FILE":"3588844","PERIAPSIS":"546.209","EPOCH":"2022-10-01T21:06:23.456160","CENTER_NAME":"EARTH","OBJECT_NAME":"STARLINK-1625","TLE_LINE2":"2 46131  53.0523 169.6701 0001402  84.5326 275.5822 15.06411083118471","BSTAR":"0.00025999000000","SEMIMAJOR_AXIS":"6925.315","OBJECT_ID":"2020-057Q","APOAPSIS":"548.151","RA_OF_ASC_NODE":"169.6701","TLE_LINE1":"1 46131U 20057Q   22274.87943815  .00003594  00000-0  25999-3 0  9999","TIME_SYSTEM":"UTC","MEAN_MOTION_DOT":"0.00003594","INCLINATION":"53.0523","RCS_SIZE":"LARGE","EPHEMERIS_TYPE":"0","SITE":"AFETR","ECCENTRICITY":"0.00014020","LAUNCH_DATE":"2020-08-18","CLASSIFICATION_TYPE":"U","MEAN_ELEMENT_THEORY":"SGP4","OBJECT_TYPE":"PAYLOAD","PERIOD":"95.591","ARG_OF_PERICENTER":"84.5326","DECAY_DATE":null,"ELEMENT_SET_NO":"999","REV_AT_EPOCH":"11847","REF_FRAME":"TEME"},{"CENTER_NAME":"EARTH","OBJECT_NAME":"STARLINK-1630","EPOCH":"2022-10-01T18:51:02.883456","PERIAPSIS":"546.108","FILE":"3588844","MEAN_ANOMALY":"270.5171","NORAD_CAT_ID":"46132","RA_OF_ASC_NODE":"190.1135","APOAPSIS":"548.219","SEMIMAJOR_AXIS":"6925.299","OBJECT_ID":"2020-057R","BSTAR":"0.00043641000000","TLE_LINE2":"2 46132  53.0523 190.1135 0001524  89.5993 270.5171 15.06416258118181","MEAN_MOTION":"15.06416258","GP_ID":"213974263","MEAN_MOTION_DDOT":"0.0000000000000","COUNTRY_CODE":"US","OBJECT_TYPE":"PAYLOAD","MEAN_ELEMENT_THEORY":"SGP4","CLASSIFICATION_TYPE":"U","LAUNCH_DATE":"2020-08-18","REF_FRAME":"TEME","REV_AT_EPOCH":"11818","ELEMENT_SET_NO":"999","DECAY_DATE":null,"ARG_OF_PERICENTER":"89.5993","PERIOD":"95.591","MEAN_MOTION_DOT":"0.00006228","INCLINATION":"53.0523","TIME_SYSTEM":"UTC","TLE_LINE1":"1 46132U 20057R   22274.78545004  .00006228  00000-0  43641-3 0  9999","ECCENTRICITY":"0.00015240","SITE":"AFETR","EPHEMERIS_TYPE":"0","RCS_SIZE":"LARGE"},{"APOAPSIS":"548.026","RA_OF_ASC_NODE":"149.8170","BSTAR":"0.00009185000000","TLE_LINE2":"2 46133  53.0566 149.8170 0001175 104.5090 255.6029 15.06400284118747","OBJECT_ID":"2020-057S","SEMIMAJOR_AXIS":"6925.348","FILE":"3588844","PERIAPSIS":"546.399","EPOCH":"2022-10-01T20:26:34.645632","OBJECT_NAME":"STARLINK-1637","CENTER_NAME":"EARTH","NORAD_CAT_ID":"46133","MEAN_ANOMALY":"255.6029","MEAN_MOTION_DDOT":"0.0000000000000","COUNTRY_CODE":"US","MEAN_MOTION":"15.06400284","GP_ID":"213975513","REF_FRAME":"TEME","PERIOD":"95.592","ARG_OF_PERICENTER":"104.5090","DECAY_DATE":null,"ELEMENT_SET_NO":"999","REV_AT_EPOCH":"11874","MEAN_ELEMENT_THEORY":"SGP4","OBJECT_TYPE":"PAYLOAD","LAUNCH_DATE":"2020-08-18","CLASSIFICATION_TYPE":"U","SITE":"AFETR","EPHEMERIS_TYPE":"0","ECCENTRICITY":"0.00011750","RCS_SIZE":"LARGE","INCLINATION":"53.0566","MEAN_MOTION_DOT":"0.00001087","TLE_LINE1":"1 46133U 20057S   22274.85178988  .00001087  00000-0  91850-4 0  9995","TIME_SYSTEM":"UTC"}];
